IRIDIUM 57 [-]          
1 25273U 98019B   23341.49690784  .00000374  00000+0  12446-3 0  9999
2 25273  86.3977  18.8032 0002179  93.8728 266.2717 14.35009576344786
IRIDIUM 63 [-]          
1 25286U 98021B   23341.45202384  .00000497  00000+0  16598-3 0  9995
2 25286  86.3964 315.7604 0002037  88.1289 272.0141 14.35518511343804
IRIDIUM 69 [-]          
1 25319U 98026A   23341.52648867  .00000472  00000+0  14467-3 0  9991
2 25319  86.3972 330.6801 0004334  76.0454 284.1226 14.39699249342794
IRIDIUM 71 [-]          
1 25320U 98026B   23341.50011607  .00000458  00000+0  13907-3 0  9999
2 25320  86.3963 325.5037 0004172 107.8266 252.3388 14.40022930343307
IRIDIUM 73 [-]          
1 25344U 98032C   23341.32894188  .00000722  00000+0  18073-3 0  9998
2 25344  86.4405 283.2935 0003011  85.0972 275.0577 14.50178150349679
IRIDIUM 82 [-]          
1 25467U 98051A   23341.54343347  .00008331  00000+0  47366-3 0  9996
2 25467  86.3963  16.5226 0142121 203.9727 155.4851 15.04426983339471
IRIDIUM 2 [-]           
1 25527U 98066A   23341.25250192  .00033224  00000+0  64739-3 0  9994
2 25527  85.5183  65.6775 0003707   2.3955 357.7318 15.47381926377805
